SL-14 R/B               
1 16792U 86046B   26080.45971232  .00000462  00000+0  50406-4 0  9998
2 16792  82.4792  69.0570 0022889 185.2309 174.8672 14.85601397128159
SL-14 R/B               
1 16882U 86055B   26080.60018474  .00000432  00000+0  47025-4 0  9995
2 16882  82.5180 115.4773 0017448 294.8134 183.2921 14.85652829121138
AJISAI (EGS)            
1 16908U 86061A   26080.61062599 -.00000115  00000+0 -12154-3 0  9993
2 16908  50.0095  56.6892 0011309 317.7379 155.1116 12.44515675469483
SL-14 R/B               
1 17567U 87024B   26080.55614941  .00000465  00000+0  50201-4 0  9994
2 17567  82.5247  81.6069 0017201 217.5613 142.4403 14.86143006 89897
COSMOS 1833             
1 17589U 87027A   26080.61137238 -.00000255  00000+0 -11077-3 0  9993
2 17589  70.9191 300.9625 0023646 197.2894 162.7424 14.13050824 12002
SL-16 R/B               
1 17590U 87027B   26080.55047023 -.00000185  00000+0 -68112-4 0  9995
2 17590  70.9992 251.4988 0002999 114.9226 245.2210 14.17166238 17026
SL-14 R/B               
1 17912U 87038B   26080.55722186  .00000438  00000+0  47855-4 0  9995
2 17912  82.4983 285.6257 0020526 123.0147 237.3045 14.85379413 80999
COSMOS 1844             
1 17973U 87041A   26080.49245120  .00000161  00000+0  10863-3 0  9998
2 17973  70.9010   9.2809 0030617   0.7018 359.4141 14.14551995  5250
SL-14 R/B               
1 18153U 87055B   26080.46465562  .00000454  00000+0  49517-4 0  9999
2 18153  82.5021 337.9363 0020083 338.9064  21.1322 14.85641335 71681
COSMOS 1867             
1 18187U 87060A   26080.59717313 -.00000026  00000+0  27833-4 0  9993
2 18187  65.0092 273.3574 0014668 279.3495  80.5931 14.31504803 21642
SL-14 R/B               
1 18749U 88001B   26080.39345723  .00000516  00000+0  56759-4 0  9995
2 18749  82.5162 184.3556 0017680 195.1207 164.9483 14.85540872 43763
COSMOS 1933             
1 18958U 88020A   26080.52323499  .00005706  00000+0  27846-3 0  9999
2 18958  82.5110 239.2002 0004886 144.1158 216.0405 15.18088460 52026
